      2.10          N: GNSS NAV DATA                        RINEX VERSION / TYPE
fic2rin                                 10/14/2021 00:17:45 PGM / RUN BY / DATE
                                                            END OF HEADER
18 21 10 13  4  0  0.0 3.109313547611e-04-5.002220859751e-12 0.000000000000e+00
    4.100000000000e+01-3.918750000000e+01 4.299464804252e-09-1.100289621011e+00
   -2.110376954079e-06 2.025394584052e-03 3.762543201447e-06 5.153646335602e+03
    2.736000000000e+05-9.313225746155e-09 3.516020204469e-01-6.705522537231e-08
    9.697138820298e-01 3.124375000000e+02 2.989868616829e+00-8.110337828125e-09
   -3.000124967247e-11 1.000000000000e+00 2.179000000000e+03 0.000000000000e+00
    2.400000000000e+00 0.000000000000e+00-8.381903171539e-09 8.090000000000e+02
    2.664000000000e+05 4.000000000000e+00
14 21 10 13  4  0  0.0-1.782691106200e-05-7.617018127348e-12 0.000000000000e+00
    1.910000000000e+02 6.962500000000e+01 4.602691720585e-09-2.792215434569e+00
    3.643333911896e-06 1.126271672547e-03 8.605420589447e-06 5.153647886276e+03
    2.736000000000e+05-3.539025783539e-08-1.721336846738e+00-4.284083843231e-08
    9.550953220224e-01 2.126875000000e+02 3.139149276110e+00-7.984975463422e-09
   -2.889406069646e-10 1.000000000000e+00 2.179000000000e+03 0.000000000000e+00
    2.400000000000e+00 0.000000000000e+00-7.916241884232e-09 4.470000000000e+02
    2.664000000000e+05 4.000000000000e+00
11 21 10 13  4  0  0.0 2.170959487557e-05 6.821210263297e-13 0.000000000000e+00
    1.740000000000e+02-4.431250000000e+01 4.642336229081e-09 1.387774494835e+00
   -2.384185791016e-06 4.669197369367e-04 2.946704626083e-06 5.153717128754e+03
    2.736000000000e+05 3.725290298462e-09 3.886008659173e-01 4.097819328308e-08
    9.609684290152e-01 3.233750000000e+02 2.282801107303e+00-8.382849179316e-09
   -9.214669542259e-11 1.000000000000e+00 2.179000000000e+03 0.000000000000e+00
    3.072000000000e+03 6.300000000000e+01-8.381903171539e-09 4.300000000000e+02
    2.664000000000e+05 4.000000000000e+00
28 21 10 13  4  0  0.0 4.835762083530e-04-7.162270776462e-12 0.000000000000e+00
    1.600000000000e+01 6.281250000000e+01 4.331966158064e-09 1.347727684416e+00
    2.998858690262e-06 1.746459759306e-02 8.843839168549e-06 5.153718008041e+03
    2.736000000000e+05 1.192092895508e-07-1.669797217299e+00-4.786998033524e-07
    9.707647268074e-01 2.137812500000e+02-1.326843460905e+00-7.871042146213e-09
   -2.457245211269e-10 1.000000000000e+00 2.179000000000e+03 0.000000000000e+00
    2.400000000000e+00 6.300000000000e+01-1.117587089539e-08 1.600000000000e+01
    2.664000000000e+05 4.000000000000e+00
 8 21 10 13  3 59 44.0-3.990577533841e-05-1.364242052659e-12 0.000000000000e+00
    4.800000000000e+01 6.203125000000e+01 4.478757986819e-09 9.455649329977e-01
    3.376975655556e-06 6.595480954275e-03 4.865229129791e-06 5.153667463303e+03
    2.735840000000e+05 9.126961231232e-08-7.348971355755e-01 9.313225746155e-08
    9.660715846678e-01 2.846875000000e+02 5.389405710952e-02-8.185698110040e-09
   -1.203621564241e-10 1.000000000000e+00 2.179000000000e+03 0.000000000000e+00
    2.400000000000e+00 0.000000000000e+00 5.122274160385e-09 4.800000000000e+01
    2.687700000000e+05 4.000000000000e+00
32 21 10 13  3 59 44.0-9.625684469938e-06-3.979039320257e-12 0.000000000000e+00
    7.000000000000e+00-1.687500000000e+01 4.580190783331e-09 1.574765589273e+00
   -8.624047040939e-07 5.128507618792e-03 8.827075362206e-06 5.153726949692e+03
    2.735840000000e+05-1.434236764908e-07 2.418148741693e+00 2.235174179077e-08
    9.576694229355e-01 2.045312500000e+02-2.384122343877e+00-8.019262605905e-09
    2.889406069646e-10 1.000000000000e+00 2.179000000000e+03 0.000000000000e+00
    2.400000000000e+00 0.000000000000e+00 4.656612873077e-10 7.000000000000e+00
    2.688900000000e+05 4.000000000000e+00
 8 21 10 13  5 59 44.0-3.991601988673e-05-1.364242052659e-12 0.000000000000e+00
    4.900000000000e+01 6.078125000000e+01 4.450899683552e-09 1.995465284350e+00
    3.339722752571e-06 6.595505867153e-03 5.735084414482e-06 5.153670972824e+03
    2.807840000000e+05-3.166496753693e-08-7.349564276453e-01 2.123415470123e-07
    9.660709044109e-01 2.712187500000e+02 5.417743604482e-02-8.151768125291e-09
   -2.928693420408e-11 1.000000000000e+00 2.179000000000e+03 0.000000000000e+00
    2.400000000000e+00 0.000000000000e+00 5.122274160385e-09 4.900000000000e+01
    2.736000000000e+05 4.000000000000e+00
32 21 10 13  5 59 44.0-9.655021131039e-06-3.979039320257e-12 0.000000000000e+00
    2.300000000000e+01-1.903125000000e+01 4.437327689652e-09 2.624920447410e+00
   -8.940696716309e-07 5.128782708198e-03 9.037554264069e-06 5.153726625443e+03
    2.807840000000e+05 1.303851604462e-08 2.418091364583e+00-1.359730958939e-07
    9.576726296519e-01 2.018750000000e+02-2.384128896287e+00-7.806753754058e-09
    3.367997433469e-10 1.000000000000e+00 2.179000000000e+03 0.000000000000e+00
    2.400000000000e+00 0.000000000000e+00 4.656612873077e-10 2.300000000000e+01
    2.736000000000e+05 4.000000000000e+00
 2 21 10 13  6  0  0.0-6.371787749231e-04-1.818989403546e-12 0.000000000000e+00
    7.700000000000e+01-2.515625000000e+01 4.714482091388e-09-9.235242230051e-02
   -1.300126314163e-06 2.033880667295e-02 3.464519977570e-06 5.153773929596e+03
    2.808000000000e+05-3.408640623093e-07 2.552472327575e-01 5.587935447693e-09
    9.644769834805e-01 3.190312500000e+02-1.488438875339e+00-8.741792702183e-09
   -2.571535686212e-11 1.000000000000e+00 2.179000000000e+03 0.000000000000e+00
    2.400000000000e+00 0.000000000000e+00-1.769512891769e-08 7.700000000000e+01
    2.736000000000e+05 4.000000000000e+00
 1 21 10 13  6  0  0.0 5.408166907728e-04-1.080024958355e-11 0.000000000000e+00
    3.900000000000e+01-4.003125000000e+01 4.163744865258e-09-3.376766305242e-01
   -2.015382051468e-06 1.106653746683e-02 4.017725586891e-06 5.153676368713e+03
    2.808000000000e+05-1.676380634308e-08 3.418782526701e-01 1.005828380585e-07
    9.859667877829e-01 3.127187500000e+02 8.902619409490e-01-8.221771041194e-09
   -8.607501394126e-11 1.000000000000e+00 2.179000000000e+03 0.000000000000e+00
    2.400000000000e+00 0.000000000000e+00 5.122274160385e-09 3.900000000000e+01
    2.736000000000e+05 4.000000000000e+00
 5 21 10 13  6  0  0.0-5.749333649874e-05-1.250555214938e-12 0.000000000000e+00
    3.100000000000e+01-1.095625000000e+02 4.468043254793e-09 2.279421178447e+00
   -5.789101123810e-06 6.054783356376e-03 7.756054401398e-06 5.153604402542e+03
    2.808000000000e+05 1.117587089539e-08 1.339360321116e+00-9.126961231232e-08
    9.576435219709e-01 2.298750000000e+02 1.008055632169e+00-8.005690612005e-09
    8.214627886510e-12 1.000000000000e+00 2.179000000000e+03 0.000000000000e+00
    2.400000000000e+00 0.000000000000e+00-1.117587089539e-08 3.100000000000e+01
    2.736000000000e+05 4.000000000000e+00
 3 21 10 13  6  0  0.0-3.230595029891e-04-1.386979420204e-11 0.000000000000e+00
    3.700000000000e+01-7.815625000000e+01 4.223033049134e-09-1.487747991796e+00
   -4.144385457039e-06 3.879946772940e-03 8.238479495049e-06 5.153755790710e+03
    2.808000000000e+05 1.303851604462e-07 1.378086916726e+00 1.490116119385e-08
    9.706536445118e-01 2.268750000000e+02 9.983178496370e-01-7.857112994580e-09
   -2.857261873569e-12 1.000000000000e+00 2.179000000000e+03 0.000000000000e+00
    2.400000000000e+00 0.000000000000e+00 1.862645149231e-09 3.700000000000e+01
    2.736000000000e+05 4.000000000000e+00
 4 21 10 13  6  0  0.0-2.037035301328e-04 4.547473508865e-13 0.000000000000e+00
    1.500000000000e+02-1.090625000000e+01 4.500901766339e-09 1.478276480835e+00
   -4.936009645462e-07 1.449085539207e-03 8.912757039070e-06 5.153685094833e+03
    2.808000000000e+05-8.940696716309e-08 2.459394929888e+00 3.911554813385e-08
    9.608621348504e-01 2.079375000000e+02-3.100542001951e+00-7.885685613315e-09
    2.728685089258e-10 1.000000000000e+00 2.179000000000e+03 0.000000000000e+00
    2.400000000000e+00 0.000000000000e+00-4.190951585770e-09 9.180000000000e+02
    2.736000000000e+05 4.000000000000e+00
12 21 10 13  6  0  0.0-1.108110882342e-04-5.456968210638e-12 0.000000000000e+00
    2.600000000000e+01 6.618750000000e+01 4.309822378544e-09-1.671970105615e+00
    3.542751073837e-06 8.261144277640e-03 8.825212717056e-06 5.153668378830e+03
    2.808000000000e+05 1.396983861923e-07-1.692050151355e+00 6.705522537231e-08
    9.716395328009e-01 2.146250000000e+02 1.229004264869e+00-7.781038397196e-09
   -2.457245211269e-10 1.000000000000e+00 2.179000000000e+03 0.000000000000e+00
    2.400000000000e+00 0.000000000000e+00-1.257285475731e-08 2.600000000000e+01
    2.736000000000e+05 4.000000000000e+00
 7 21 10 13  6  0  0.0 2.615675330162e-04 6.252776074689e-12 0.000000000000e+00
    1.500000000000e+01 2.156250000000e+01 4.908061583323e-09-9.618265635942e-01
    1.385807991028e-06 1.527722051833e-02 7.137656211853e-06 5.153727087021e+03
    2.808000000000e+05 2.384185791016e-07-2.803932365323e+00 3.110617399216e-07
    9.516125895240e-01 2.349062500000e+02-2.303872752565e+00-8.206056100889e-09
   -8.357490980188e-11 1.000000000000e+00 2.179000000000e+03 0.000000000000e+00
    2.400000000000e+00 0.000000000000e+00-1.117587089539e-08 1.500000000000e+01
    2.736000000000e+05 4.000000000000e+00
16 21 10 13  6  0  0.0-4.061968065798e-04-6.252776074689e-12 0.000000000000e+00
    5.300000000000e+01 5.612500000000e+01 4.228747572882e-09 2.765889372314e+00
    2.874061465263e-06 1.228939369321e-02 8.728355169296e-06 5.153774070740e+03
    2.808000000000e+05-5.587935447693e-08-1.673357477141e+00-1.545995473862e-07
    9.716442989880e-01 2.180312500000e+02 6.794925043674e-01-7.654604559290e-09
   -1.857220217820e-10 1.000000000000e+00 2.179000000000e+03 0.000000000000e+00
    2.400000000000e+00 0.000000000000e+00-1.024454832077e-08 5.300000000000e+01
    2.736000000000e+05 4.000000000000e+00
